CCSDS_OMM_VERS = 2.0
CREATION_DATE  = 
ORIGINATOR     = 

OBJECT_NAME    = STARLINK-36992
OBJECT_ID      = 2026-049H
CENTER_NAME    = EARTH
REF_FRAME      = TEME
TIME_SYSTEM    = UTC
MEAN_ELEMENT_THEORY = SGP/SGP4

EPOCH          = 2026-03-30T20:47:53.454624
MEAN_MOTION    = 15.80956110
ECCENTRICITY   = .00013522
INCLINATION    = 97.2840
RA_OF_ASC_NODE = 110.1827
ARG_OF_PERICENTER = 102.4411
MEAN_ANOMALY   = 257.7009

EPHEMERIS_TYPE = 0
CLASSIFICATION_TYPE = U
NORAD_CAT_ID   = 68149
ELEMENT_SET_NO = 999
REV_AT_EPOCH   = 275
BSTAR          = .15265775E-2
MEAN_MOTION_DOT = .304658E-2
MEAN_MOTION_DDOT = 0

CCSDS_OMM_VERS = 2.0
CREATION_DATE  = 
ORIGINATOR     = 

OBJECT_NAME    = STARLINK-37060
OBJECT_ID      = 2026-049J
CENTER_NAME    = EARTH
REF_FRAME      = TEME
TIME_SYSTEM    = UTC
MEAN_ELEMENT_THEORY = SGP/SGP4

EPOCH          = 2026-03-30T20:46:48.331488
MEAN_MOTION    = 15.80948605
ECCENTRICITY   = .00009032
INCLINATION    = 97.2840
RA_OF_ASC_NODE = 110.1832
ARG_OF_PERICENTER = 82.5863
MEAN_ANOMALY   = 277.5508

EPHEMERIS_TYPE = 0
CLASSIFICATION_TYPE = U
NORAD_CAT_ID   = 68150
ELEMENT_SET_NO = 999
REV_AT_EPOCH   = 275
BSTAR          = .13392995E-2
MEAN_MOTION_DOT = .265981E-2
MEAN_MOTION_DDOT = 0

CCSDS_OMM_VERS = 2.0
CREATION_DATE  = 
ORIGINATOR     = 

OBJECT_NAME    = STARLINK-37073
OBJECT_ID      = 2026-049K
CENTER_NAME    = EARTH
REF_FRAME      = TEME
TIME_SYSTEM    = UTC
MEAN_ELEMENT_THEORY = SGP/SGP4

EPOCH          = 2026-03-30T22:16:52.434624
MEAN_MOTION    = 15.80936313
ECCENTRICITY   = .00015493
INCLINATION    = 97.2844
RA_OF_ASC_NODE = 110.2514
ARG_OF_PERICENTER = 81.7417
MEAN_ANOMALY   = 278.4027

EPHEMERIS_TYPE = 0
CLASSIFICATION_TYPE = U
NORAD_CAT_ID   = 68151
ELEMENT_SET_NO = 999
REV_AT_EPOCH   = 276
BSTAR          = .96895644E-3
MEAN_MOTION_DOT = .190616E-2
MEAN_MOTION_DDOT = 0

CCSDS_OMM_VERS = 2.0
CREATION_DATE  = 
ORIGINATOR     = 

OBJECT_NAME    = STARLINK-37049
OBJECT_ID      = 2026-049L
CENTER_NAME    = EARTH
REF_FRAME      = TEME
TIME_SYSTEM    = UTC
MEAN_ELEMENT_THEORY = SGP/SGP4

EPOCH          = 2026-03-30T20:44:38.632992
MEAN_MOTION    = 15.80958087
ECCENTRICITY   = .00015036
INCLINATION    = 97.2842
RA_OF_ASC_NODE = 110.1854
ARG_OF_PERICENTER = 99.5463
MEAN_ANOMALY   = 260.5975

EPHEMERIS_TYPE = 0
CLASSIFICATION_TYPE = U
NORAD_CAT_ID   = 68152
ELEMENT_SET_NO = 999
REV_AT_EPOCH   = 275
BSTAR          = .1550731E-2
MEAN_MOTION_DOT = .309689E-2
MEAN_MOTION_DDOT = 0

CCSDS_OMM_VERS = 2.0
CREATION_DATE  = 
ORIGINATOR     = 

OBJECT_NAME    = STARLINK-37072
OBJECT_ID      = 2026-049M
CENTER_NAME    = EARTH
REF_FRAME      = TEME
TIME_SYSTEM    = UTC
MEAN_ELEMENT_THEORY = SGP/SGP4

EPOCH          = 2026-03-30T22:00:00.999936
MEAN_MOTION    = 15.76652607
ECCENTRICITY   = .00016091
INCLINATION    = 97.2849
RA_OF_ASC_NODE = 110.2417
ARG_OF_PERICENTER = 83.6761
MEAN_ANOMALY   = 211.4731

EPHEMERIS_TYPE = 0
CLASSIFICATION_TYPE = U
NORAD_CAT_ID   = 68153
ELEMENT_SET_NO = 999
REV_AT_EPOCH   = 403
BSTAR          = -.11598341E-1
MEAN_MOTION_DOT = -.1608803E-1
MEAN_MOTION_DDOT = 0

CCSDS_OMM_VERS = 2.0
CREATION_DATE  = 
ORIGINATOR     = 

OBJECT_NAME    = STARLINK-36241
OBJECT_ID      = 2026-049N
CENTER_NAME    = EARTH
REF_FRAME      = TEME
TIME_SYSTEM    = UTC
MEAN_ELEMENT_THEORY = SGP/SGP4

EPOCH          = 2026-03-30T22:00:00.999936
MEAN_MOTION    = 15.75158150
ECCENTRICITY   = .00017893
INCLINATION    = 97.2841
RA_OF_ASC_NODE = 110.2120
ARG_OF_PERICENTER = 98.9311
MEAN_ANOMALY   = 129.3065

EPHEMERIS_TYPE = 0
CLASSIFICATION_TYPE = U
NORAD_CAT_ID   = 68154
ELEMENT_SET_NO = 999
REV_AT_EPOCH   = 404
BSTAR          = .11571836E-3
MEAN_MOTION_DOT = .17142E-3
MEAN_MOTION_DDOT = 0

CCSDS_OMM_VERS = 2.0
CREATION_DATE  = 
ORIGINATOR     = 

OBJECT_NAME    = STARLINK-37048
OBJECT_ID      = 2026-049P
CENTER_NAME    = EARTH
REF_FRAME      = TEME
TIME_SYSTEM    = UTC
MEAN_ELEMENT_THEORY = SGP/SGP4

EPOCH          = 2026-03-30T22:10:23.011680
MEAN_MOTION    = 15.80938229
ECCENTRICITY   = .00013776
INCLINATION    = 97.2847
RA_OF_ASC_NODE = 110.2573
ARG_OF_PERICENTER = 104.9431
MEAN_ANOMALY   = 255.1990

EPHEMERIS_TYPE = 0
CLASSIFICATION_TYPE = U
NORAD_CAT_ID   = 68155
ELEMENT_SET_NO = 999
REV_AT_EPOCH   = 276
BSTAR          = .11287482E-2
MEAN_MOTION_DOT = .222922E-2
MEAN_MOTION_DDOT = 0

CCSDS_OMM_VERS = 2.0
CREATION_DATE  = 
ORIGINATOR     = 

OBJECT_NAME    = STARLINK-36313
OBJECT_ID      = 2026-049Q
CENTER_NAME    = EARTH
REF_FRAME      = TEME
TIME_SYSTEM    = UTC
MEAN_ELEMENT_THEORY = SGP/SGP4

EPOCH          = 2026-03-30T22:11:27.848832
MEAN_MOTION    = 15.80936256
ECCENTRICITY   = .0001692
INCLINATION    = 97.2849
RA_OF_ASC_NODE = 110.2556
ARG_OF_PERICENTER = 93.8085
MEAN_ANOMALY   = 266.3377

EPHEMERIS_TYPE = 0
CLASSIFICATION_TYPE = U
NORAD_CAT_ID   = 68156
ELEMENT_SET_NO = 999
REV_AT_EPOCH   = 276
BSTAR          = .10689987E-2
MEAN_MOTION_DOT = .210802E-2
MEAN_MOTION_DDOT = 0

CCSDS_OMM_VERS = 2.0
CREATION_DATE  = 
ORIGINATOR     = 

OBJECT_NAME    = STARLINK-37064
OBJECT_ID      = 2026-049R
CENTER_NAME    = EARTH
REF_FRAME      = TEME
TIME_SYSTEM    = UTC
MEAN_ELEMENT_THEORY = SGP/SGP4

EPOCH          = 2026-03-30T22:13:37.596576
MEAN_MOTION    = 15.80978464
ECCENTRICITY   = .00013899
INCLINATION    = 97.2849
RA_OF_ASC_NODE = 110.2539
ARG_OF_PERICENTER = 78.3513
MEAN_ANOMALY   = 281.7911

EPHEMERIS_TYPE = 0
CLASSIFICATION_TYPE = U
NORAD_CAT_ID   = 68157
ELEMENT_SET_NO = 999
REV_AT_EPOCH   = 276
BSTAR          = .15318376E-2
MEAN_MOTION_DOT = .30607E-2
MEAN_MOTION_DDOT = 0

CCSDS_OMM_VERS = 2.0
CREATION_DATE  = 
ORIGINATOR     = 

OBJECT_NAME    = STARLINK-37069
OBJECT_ID      = 2026-049S
CENTER_NAME    = EARTH
REF_FRAME      = TEME
TIME_SYSTEM    = UTC
MEAN_ELEMENT_THEORY = SGP/SGP4

EPOCH          = 2026-03-30T22:00:00.999936
MEAN_MOTION    = 15.75124211
ECCENTRICITY   = .00015097
INCLINATION    = 97.2843
RA_OF_ASC_NODE = 110.2212
ARG_OF_PERICENTER = 67.8298
MEAN_ANOMALY   = 180.4133

EPHEMERIS_TYPE = 0
CLASSIFICATION_TYPE = U
NORAD_CAT_ID   = 68158
ELEMENT_SET_NO = 999
REV_AT_EPOCH   = 403
BSTAR          = .64427963E-3
MEAN_MOTION_DOT = .96789E-3
MEAN_MOTION_DDOT = 0

CCSDS_OMM_VERS = 2.0
CREATION_DATE  = 
ORIGINATOR     = 

OBJECT_NAME    = STARLINK-37053
OBJECT_ID      = 2026-049T
CENTER_NAME    = EARTH
REF_FRAME      = TEME
TIME_SYSTEM    = UTC
MEAN_ELEMENT_THEORY = SGP/SGP4

EPOCH          = 2026-03-30T22:07:08.359392
MEAN_MOTION    = 15.80952362
ECCENTRICITY   = .00017356
INCLINATION    = 97.2850
RA_OF_ASC_NODE = 110.2596
ARG_OF_PERICENTER = 89.6121
MEAN_ANOMALY   = 270.5346

EPHEMERIS_TYPE = 0
CLASSIFICATION_TYPE = U
NORAD_CAT_ID   = 68159
ELEMENT_SET_NO = 999
REV_AT_EPOCH   = 276
BSTAR          = .12679818E-2
MEAN_MOTION_DOT = .251429E-2
MEAN_MOTION_DDOT = 0

CCSDS_OMM_VERS = 2.0
CREATION_DATE  = 
ORIGINATOR     = 

OBJECT_NAME    = STARLINK-36306
OBJECT_ID      = 2026-049U
CENTER_NAME    = EARTH
REF_FRAME      = TEME
TIME_SYSTEM    = UTC
MEAN_ELEMENT_THEORY = SGP/SGP4

EPOCH          = 2026-03-30T22:00:00.999936
MEAN_MOTION    = 15.75144837
ECCENTRICITY   = .00014067
INCLINATION    = 97.2849
RA_OF_ASC_NODE = 110.2313
ARG_OF_PERICENTER = 92.7942
MEAN_ANOMALY   = 177.4368

EPHEMERIS_TYPE = 0
CLASSIFICATION_TYPE = U
NORAD_CAT_ID   = 68160
ELEMENT_SET_NO = 999
REV_AT_EPOCH   = 404
BSTAR          = .44924109E-3
MEAN_MOTION_DOT = .67276E-3
MEAN_MOTION_DDOT = 0

