STARLINK-36992          
1 68149U 26049H   26089.86659091  .00304658  00000+0  15266-2 0  9995
2 68149  97.2840 110.1827 0001352 102.4411 257.7009 15.80956110  2754
STARLINK-37060          
1 68150U 26049J   26089.86583717  .00265981  00000+0  13393-2 0  9992
2 68150  97.2840 110.1832 0000903  82.5863 277.5508 15.80948605  2756
STARLINK-37073          
1 68151U 26049K   26089.92838466  .00190616  00000+0  96896-3 0  9996
2 68151  97.2844 110.2514 0001549  81.7417 278.4027 15.80936313  2762
STARLINK-37049          
1 68152U 26049L   26089.86433603  .00309689  00000+0  15507-2 0  9995
2 68152  97.2842 110.1854 0001503  99.5463 260.5975 15.80958087  2750
STARLINK-37072          
1 68153U 26049M   26089.91667824 -.01608803  00000+0 -11598-1 0  9994
2 68153  97.2849 110.2417 0001609  83.6761 211.4731 15.76652607  4038
STARLINK-36241          
1 68154U 26049N   26089.91667824  .00017142  00000+0  11572-3 0  9996
2 68154  97.2841 110.2120 0001789  98.9311 129.3065 15.75158150  4042
STARLINK-37048          
1 68155U 26049P   26089.92387745  .00222922  00000+0  11287-2 0  9995
2 68155  97.2847 110.2573 0001377 104.9431 255.1990 15.80938229  2766
STARLINK-36313          
1 68156U 26049Q   26089.92462788  .00210802  00000+0  10690-2 0  9998
2 68156  97.2849 110.2556 0001692  93.8085 266.3377 15.80936256  2762
STARLINK-37064          
1 68157U 26049R   26089.92612959  .00306070  00000+0  15318-2 0  9991
2 68157  97.2849 110.2539 0001389  78.3513 281.7911 15.80978464  2763
STARLINK-37069          
1 68158U 26049S   26089.91667824  .00096789  00000+0  64428-3 0  9992
2 68158  97.2843 110.2212 0001509  67.8298 180.4133 15.75124211  4033
STARLINK-37053          
1 68159U 26049T   26089.92162453  .00251429  00000+0  12680-2 0  9998
2 68159  97.2850 110.2596 0001735  89.6121 270.5346 15.80952362  2762
STARLINK-36306          
1 68160U 26049U   26089.91667824  .00067276  00000+0  44924-3 0  9993
2 68160  97.2849 110.2313 0001406  92.7942 177.4368 15.75144837  4046
